{
  "type": "FeatureCollection",
  "features": [
    {
      "type": "Feature",
      "properties": {
        "norad_id": 29954,
        "name": "FENGYUN 1C DEB",
        "group": "fengyun-1c-debris",
        "lat": 1.9595760595585137,
        "lon": -149.48095047278093,
        "alt_km": 769.1683848530538,
        "timestamp": "2025-12-17T07:00:47.176513+00:00",
        "meta_object_name": "FENGYUN 1C DEB",
        "meta_object_id": "1999-025KC",
        "meta_epoch": "2025-12-16T23:28:53.546592",
        "meta_mean_motion": 14.34251917,
        "meta_eccentricity": 0.00744502,
        "meta_inclination": 100.151,
        "meta_ra_of_asc_node": 29.7999,
        "meta_arg_of_pericenter": 257.2718,
        "meta_mean_anomaly": 102.0132,
        "meta_ephemeris_type": 0,
        "meta_classification_type": "U",
        "meta_norad_cat_id": 29954,
        "meta_element_set_no": 999,
        "meta_rev_at_epoch": 98248,
        "meta_bstar": 0.00067390465,
        "meta_mean_motion_dot": 1.893e-05,
        "meta_mean_motion_ddot": 0,
        "tle_line1": "1 29954U 99025KC  25350.97839753  .00001893  00000+0  67390-3 0  9998",
        "tle_line2": "2 29954 100.1510  29.7999 0074450 257.2718 102.0132 14.34251917982483"
      },
      "geometry": {
        "type": "Point",
        "coordinates": [
          -149.48095047278093,
          1.9595760595585137
        ]
      }
    },
    {
      "type": "Feature",
      "properties": {
        "norad_id": 29955,
        "name": "FENGYUN 1C DEB",
        "group": "fengyun-1c-debris",
        "lat": -22.947525884444847,
        "lon": 76.28805525099452,
        "alt_km": 770.6545918389056,
        "timestamp": "2025-12-17T07:00:47.176526+00:00",
        "meta_object_name": "FENGYUN 1C DEB",
        "meta_object_id": "1999-025KD",
        "meta_epoch": "2025-12-16T23:35:44.834784",
        "meta_mean_motion": 14.38279986,
        "meta_eccentricity": 0.00078671,
        "meta_inclination": 99.2741,
        "meta_ra_of_asc_node": 71.9876,
        "meta_arg_of_pericenter": 236.3673,
        "meta_mean_anomaly": 301.0614,
        "meta_ephemeris_type": 0,
        "meta_classification_type": "U",
        "meta_norad_cat_id": 29955,
        "meta_element_set_no": 999,
        "meta_rev_at_epoch": 98122,
        "meta_bstar": 0.0011333981,
        "meta_mean_motion_dot": 3.399e-05,
        "meta_mean_motion_ddot": 0,
        "tle_line1": "1 29955U 99025KD  25350.98315781  .00003399  00000+0  11334-2 0  9999",
        "tle_line2": "2 29955  99.2741  71.9876 0007867 236.3673 301.0614 14.38279986981224"
      },
      "geometry": {
        "type": "Point",
        "coordinates": [
          76.28805525099452,
          -22.947525884444847
        ]
      }
    },
    {
      "type": "Feature",
      "properties": {
        "norad_id": 29956,
        "name": "FENGYUN 1C DEB",
        "group": "fengyun-1c-debris",
        "lat": -53.53518084102585,
        "lon": -172.07274636683292,
        "alt_km": 904.4859318796043,
        "timestamp": "2025-12-17T07:00:47.176538+00:00",
        "meta_object_name": "FENGYUN 1C DEB",
        "meta_object_id": "1999-025KE",
        "meta_epoch": "2025-12-16T23:22:28.790976",
        "meta_mean_motion": 14.0617099,
        "meta_eccentricity": 0.00535066,
        "meta_inclination": 98.7912,
        "meta_ra_of_asc_node": 19.7054,
        "meta_arg_of_pericenter": 5.6943,
        "meta_mean_anomaly": 58.9197,
        "meta_ephemeris_type": 0,
        "meta_classification_type": "U",
        "meta_norad_cat_id": 29956,
        "meta_element_set_no": 999,
        "meta_rev_at_epoch": 97109,
        "meta_bstar": 5.9622612e-05,
        "meta_mean_motion_dot": 5.6e-07,
        "meta_mean_motion_ddot": 0,
        "tle_line1": "1 29956U 99025KE  25350.97394434  .00000056  00000+0  59623-4 0  9993",
        "tle_line2": "2 29956  98.7912  19.7054 0053506   5.6943  58.9197 14.06170990971093"
      },
      "geometry": {
        "type": "Point",
        "coordinates": [
          -172.07274636683292,
          -53.53518084102585
        ]
      }
    },
    {
      "type": "Feature",
      "properties": {
        "norad_id": 29957,
        "name": "FENGYUN 1C DEB",
        "group": "fengyun-1c-debris",
        "lat": -53.58643181941209,
        "lon": 130.8286189035585,
        "alt_km": 749.0225939326556,
        "timestamp": "2025-12-17T07:00:47.176549+00:00",
        "meta_object_name": "FENGYUN 1C DEB",
        "meta_object_id": "1999-025KF",
        "meta_epoch": "2025-12-16T21:53:47.104800",
        "meta_mean_motion": 14.51264123,
        "meta_eccentricity": 0.00375588,
        "meta_inclination": 98.9197,
        "meta_ra_of_asc_node": 118.1328,
        "meta_arg_of_pericenter": 166.0701,
        "meta_mean_anomaly": 315.7104,
        "meta_ephemeris_type": 0,
        "meta_classification_type": "U",
        "meta_norad_cat_id": 29957,
        "meta_element_set_no": 999,
        "meta_rev_at_epoch": 97552,
        "meta_bstar": 0.0034108,
        "meta_mean_motion_dot": 0.00013665,
        "meta_mean_motion_ddot": 0,
        "tle_line1": "1 29957U 99025KF  25350.91235075  .00013665  00000+0  34108-2 0  9992",
        "tle_line2": "2 29957  98.9197 118.1328 0037558 166.0701 315.7104 14.51264123975528"
      },
      "geometry": {
        "type": "Point",
        "coordinates": [
          130.8286189035585,
          -53.58643181941209
        ]
      }
    },
    {
      "type": "Feature",
      "properties": {
        "norad_id": 29958,
        "name": "FENGYUN 1C DEB",
        "group": "fengyun-1c-debris",
        "lat": -22.599698210210107,
        "lon": 9.166002245923142,
        "alt_km": 812.0876939632908,
        "timestamp": "2025-12-17T07:00:47.176560+00:00",
        "meta_object_name": "FENGYUN 1C DEB",
        "meta_object_id": "1999-025KG",
        "meta_epoch": "2025-12-17T00:19:45.058080",
        "meta_mean_motion": 14.14462869,
        "meta_eccentricity": 0.0054133,
        "meta_inclination": 98.6682,
        "meta_ra_of_asc_node": 5.255,
        "meta_arg_of_pericenter": 320.8919,
        "meta_mean_anomaly": 38.8347,
        "meta_ephemeris_type": 0,
        "meta_classification_type": "U",
        "meta_norad_cat_id": 29958,
        "meta_element_set_no": 999,
        "meta_rev_at_epoch": 97511,
        "meta_bstar": 0.00031288607,
        "meta_mean_motion_dot": 5.65e-06,
        "meta_mean_motion_ddot": 0,
        "tle_line1": "1 29958U 99025KG  25351.01371595  .00000565  00000+0  31289-3 0  9996",
        "tle_line2": "2 29958  98.6682   5.2550 0054133 320.8919  38.8347 14.14462869975110"
      },
      "geometry": {
        "type": "Point",
        "coordinates": [
          9.166002245923142,
          -22.599698210210107
        ]
      }
    },
    {
      "type": "Feature",
      "properties": {
        "norad_id": 29959,
        "name": "FENGYUN 1C DEB",
        "group": "fengyun-1c-debris",
        "lat": 4.394696412384215,
        "lon": -157.48676932956593,
        "alt_km": 898.2292423036579,
        "timestamp": "2025-12-17T07:00:47.176570+00:00",
        "meta_object_name": "FENGYUN 1C DEB",
        "meta_object_id": "1999-025KH",
        "meta_epoch": "2025-12-16T08:17:11.157792",
        "meta_mean_motion": 14.06016178,
        "meta_eccentricity": 0.00415594,
        "meta_inclination": 98.8079,
        "meta_ra_of_asc_node": 20.9097,
        "meta_arg_of_pericenter": 317.6692,
        "meta_mean_anomaly": 107.6248,
        "meta_ephemeris_type": 0,
        "meta_classification_type": "U",
        "meta_norad_cat_id": 29959,
        "meta_element_set_no": 999,
        "meta_rev_at_epoch": 96991,
        "meta_bstar": 6.2749803e-05,
        "meta_mean_motion_dot": 6e-07,
        "meta_mean_motion_ddot": 0,
        "tle_line1": "1 29959U 99025KH  25350.34526803  .00000060  00000+0  62750-4 0  9994",
        "tle_line2": "2 29959  98.8079  20.9097 0041559 317.6692 107.6248 14.06016178969918"
      },
      "geometry": {
        "type": "Point",
        "coordinates": [
          -157.48676932956593,
          4.394696412384215
        ]
      }
    },
    {
      "type": "Feature",
      "properties": {
        "norad_id": 29960,
        "name": "FENGYUN 1C DEB",
        "group": "fengyun-1c-debris",
        "lat": 60.29057530076932,
        "lon": -38.690318194414935,
        "alt_km": 887.3164792569914,
        "timestamp": "2025-12-17T07:00:47.176581+00:00",
        "meta_object_name": "FENGYUN 1C DEB",
        "meta_object_id": "1999-025KJ",
        "meta_epoch": "2025-12-16T22:30:19.985184",
        "meta_mean_motion": 14.16411419,
        "meta_eccentricity": 0.0090845,
        "meta_inclination": 98.6146,
        "meta_ra_of_asc_node": 336.3733,
        "meta_arg_of_pericenter": 274.1091,
        "meta_mean_anomaly": 140.3405,
        "meta_ephemeris_type": 0,
        "meta_classification_type": "U",
        "meta_norad_cat_id": 29960,
        "meta_element_set_no": 999,
        "meta_rev_at_epoch": 97514,
        "meta_bstar": 0.00042436376,
        "meta_mean_motion_dot": 8.35e-06,
        "meta_mean_motion_ddot": 0,
        "tle_line1": "1 29960U 99025KJ  25350.93773131  .00000835  00000+0  42436-3 0  9997",
        "tle_line2": "2 29960  98.6146 336.3733 0090845 274.1091 140.3405 14.16411419975145"
      },
      "geometry": {
        "type": "Point",
        "coordinates": [
          -38.690318194414935,
          60.29057530076932
        ]
      }
    }
  ]
}